[{"OBJECT_NAME":"STARLINK-1184","OBJECT_ID":"2020-006BG","EPOCH":"2026-03-09T17:34:46.446528","MEAN_MOTION":15.10217387,"ECCENTRICITY":0.00058117,"INCLINATION":53.0529,"RA_OF_ASC_NODE":245.2266,"ARG_OF_PERICENTER":133.9139,"MEAN_ANOMALY":226.2332,"EPHEMERIS_TYPE":0,"CLASSIFICATION_TYPE":"U","NORAD_CAT_ID":45098,"ELEMENT_SET_NO":999,"REV_AT_EPOCH":33704,"BSTAR":0.0018857245,"MEAN_MOTION_DOT":0.00031026,"MEAN_MOTION_DDOT":0},{"OBJECT_NAME":"PIESAT-2 10","OBJECT_ID":"2024-241B","EPOCH":"2026-03-09T22:48:45.474912","MEAN_MOTION":15.13442757,"ECCENTRICITY":0.00016097,"INCLINATION":97.5294,"RA_OF_ASC_NODE":18.0943,"ARG_OF_PERICENTER":90.8113,"MEAN_ANOMALY":269.3302,"EPHEMERIS_TYPE":0,"CLASSIFICATION_TYPE":"U","NORAD_CAT_ID":62334,"ELEMENT_SET_NO":999,"REV_AT_EPOCH":6779,"BSTAR":0.00025471239,"MEAN_MOTION_DOT":4.487e-5,"MEAN_MOTION_DDOT":0}]
